STARLINK-5061           
1 54847U 22177AD  23324.51749860  .00001564  00000+0  13076-3 0  9996
2 54847  43.0051 352.4068 0001148 271.7464  88.3247 15.02548530 50871
STARLINK-5432           
1 54848U 22177AE  23324.42424734  .00002833  00000+0  22466-3 0  9990
2 54848  43.0042   6.4299 0001273 272.3437  87.7259 15.02544712 50706
STARLINK-5434           
1 54849U 22177AF  23324.55349624  .00000616  00000+0  60685-4 0  9992
2 54849  43.0049  17.8223 0001258 272.9464  87.1234 15.02542841 50580
STARLINK-5087           
1 54850U 22177AG  23324.55276539  .00001733  00000+0  14328-3 0  9991
2 54850  43.0040   5.6732 0001282 277.4718  82.5978 15.02540565 50723
STARLINK-5084           
1 54851U 22177AH  23324.55609142  .00004106  00000+0  31874-3 0  9994
2 54851  43.0041   5.6972 0001176 273.3569  86.7138 15.02548799 50723
STARLINK-5418           
1 54852U 22177AJ  23324.54610371  .00001708  00000+0  14146-3 0  9998
2 54852  43.0051   5.6219 0000984 267.8530  92.2200 15.02543288 50721
STARLINK-5427           
1 54853U 22177AK  23324.54943690  .00000444  00000+0  47913-4 0  9997
2 54853  43.0048   5.6481 0001080 280.6682  79.4038 15.02539251 50729
STARLINK-5419           
1 54854U 22177AL  23324.54055262  .00002311  00000+0  18606-3 0  9998
2 54854  43.0045   5.5801 0001172 271.0832  88.9876 15.02545268 50725
STARLINK-5416           
1 54855U 22177AM  23324.54388068  .00001380  00000+0  11715-3 0  9991
2 54855  43.0051   5.6053 0001143 273.1654  86.9057 15.02546167 50724
STARLINK-5086           
1 54856U 22177AN  23324.52279241  .00002296  00000+0  18496-3 0  9992
2 54856  43.0043   5.4476 0001255 270.9430  89.1269 15.02547601 50728
STARLINK-5078           
1 54857U 22177AP  23324.53389271  .00001800  00000+0  14822-3 0  9998
2 54857  43.0045   5.5349 0001078 272.6582  87.4137 15.02545008 50725
STARLINK-5407           
1 54858U 22177AQ  23324.46963397  .00000471  00000+0  49932-4 0  9992
2 54858  43.0047   5.9081 0001210 265.3399  94.7305 15.02542631 50714
STARLINK-5409           
1 54859U 22177AR  23324.52612442  .00002019  00000+0  16441-3 0  9990
2 54859  43.0044   5.4720 0001238 274.1559  85.9142 15.02546493 50725
STARLINK-5406           
1 54860U 22177AS  23324.38761967  .00001579  00000+0  13192-3 0  9993
2 54860  43.0051   6.1524 0001092 271.7711  88.3007 15.02543026 50700
STARLINK-5400           
1 54861U 22177AT  23324.53722601 -.00000452  00000+0 -18421-4 0  9995
2 54861  43.0049   5.5559 0001094 272.7642  87.3075 15.02539642 50720
STARLINK-5403           
1 54862U 22177AU  23324.42758255  .00001557  00000+0  13027-3 0  9999
2 54862  43.0050   6.4664 0001098 278.8911  81.1807 15.02538467 50707
STARLINK-5405           
1 54863U 22177AV  23324.39649159  .00003876  00000+0  30174-3 0  9996
2 54863  43.0045   6.2199 0001261 270.9975  89.0723 15.02552679 50703
STARLINK-5359           
1 54864U 22177AW  23324.51723537 -.00002317  00000+0 -15649-3 0  9995
2 54864  43.0040   5.4043 0001347 273.0552  87.0136 15.02543698 50727
STARLINK-5411           
1 54865U 22177AX  23324.53278309  .00002472  00000+0  19806-3 0  9999
2 54865  43.0037   5.5222 0001133 262.4059  97.6655 15.02530793 50726
STARLINK-5398           
1 54866U 22177AY  23324.17487081  .00000880  00000+0  80215-4 0  9993
2 54866  43.0052   7.1370 0001174 270.9047  89.1661 15.02538252 50677
STARLINK-5396           
1 54867U 22177AZ  23324.51946779  .00005855  00000+0  44807-3 0  9999
2 54867  43.0041   5.4220 0001298 262.2633  97.8062 15.02541353 50726
STARLINK-5379           
1 54868U 22177BA  23324.50281465  .00001884  00000+0  15450-3 0  9993
2 54868  43.0050   5.2943 0001105 276.2261  83.8455 15.02544109 50729
STARLINK-5402           
1 54869U 22177BB  23324.51280286  .00000972  00000+0  86957-4 0  9993
2 54869  43.0042   5.3721 0001234 272.0174  88.0527 15.02547946 50725
STARLINK-5401           
1 54870U 22177BC  23324.50503381  .00002560  00000+0  20450-3 0  9998
2 54870  43.0051   5.3119 0001108 284.1424  75.9295 15.02544013 50729
STARLINK-5397           
1 54871U 22177BD  23324.51392101  .00014581  00000+0  10911-2 0  9992
2 54871  43.0037   5.3810 0001234 262.6078  97.4625 15.02575753 50729
STARLINK-5390           
1 54872U 22177BE  23324.49726717  .00001537  00000+0  12880-3 0  9999
2 54872  43.0048   5.2820 0001090 277.0614  83.0104 15.02544431 50720
STARLINK-5091           
1 54873U 22177BF  23324.49948282  .00002005  00000+0  16339-3 0  9997
2 54873  43.0049   5.2702 0001178 275.5618  84.5090 15.02547358 50726
STARLINK-5277           
1 55269U 23010A   23324.51389162  .00000511  00000+0  50588-4 0  9998
2 55269  70.0001   2.9234 0002477 262.0751  98.0127 14.98332437 47215
STARLINK-5301           
1 55270U 23010B   23324.52641548  .00000900  00000+0  83198-4 0  9995
2 55270  69.9996   2.9683 0002781 267.4052  92.6789 14.98330764 46939
STARLINK-5306           
1 55271U 23010C   23324.51806809 -.00000126  00000+0 -28021-5 0  9995
2 55271  69.9999   2.9383 0002703 267.5676  92.5174 14.98330907 46933
STARLINK-5310           
1 55272U 23010D   23324.53058468  .00001016  00000+0  92900-4 0  9991
2 55272  69.9996   2.9818 0002837 267.8775  92.2059 14.98337222 46931
STARLINK-5291           
1 55273U 23010E   23324.50572388 -.00002018  00000+0 -16145-3 0  9992
2 55273  69.9997   2.8961 0002806 272.9949  87.0889 14.98313049 46931
STARLINK-5236           
1 55274U 23010F   23324.43858729 -.00003116  00000+0 -25363-3 0  9993
2 55274  69.9986 343.1940 0002772 269.3372  90.7469 14.98308511 47417
STARLINK-5260           
1 55275U 23010G   23324.36763421 -.00000707  00000+0 -51518-4 0  9995
2 55275  70.0002 343.3487 0002303 256.3360 103.7542 14.98323188 47404
STARLINK-5261           
1 55276U 23010H   23324.36345696 -.00001738  00000+0 -13791-3 0  9991
2 55276  69.9998 343.3336 0002058 250.7243 109.3693 14.98333139 47398
STARLINK-5299           
1 55277U 23010J   23324.50554182  .00000174  00000+0  22410-4 0  9990
2 55277  69.9999   2.8948 0002822 269.6292  90.4543 14.98333289 46937
STARLINK-5289           
1 55278U 23010K   23324.55560788  .00000363  00000+0  38204-4 0  9993
2 55278  70.0008   2.6660 0002428 273.7227  86.3655 14.98331174 46936
STARLINK-5323           
1 55279U 23010L   23324.50138021 -.00001125  00000+0 -86509-4 0  9990
2 55279  69.9998   2.8805 0002567 274.5368  85.5498 14.98320714 46938
STARLINK-5331           
1 55280U 23010M   23324.54755137 -.00064199  00000+0 -53683-2 0  9994
2 55280  70.0000   2.6344 0002609 253.6995 106.3877 14.98715302 46938
STARLINK-5298           
1 55281U 23010N   23324.49719881 -.00000397  00000+0 -25494-4 0  9996
2 55281  70.0003   2.8640 0002462 271.4047  88.6830 14.98327518 46924
STARLINK-5330           
1 55282U 23010P   23324.54308188  .00005272  00000+0  44941-3 0  9999
2 55282  70.0002   2.6187 0002689 259.8537 100.2319 14.98320676 46935
STARLINK-5317           
1 55283U 23010Q   23324.49301728 -.00002916  00000+0 -23660-3 0  9996
2 55283  70.0000   2.8495 0002507 263.2946  96.7927 14.98346260 46920
STARLINK-5337           
1 55284U 23010R   23324.53891054  .00000451  00000+0  45613-4 0  9991
2 55284  69.9998   2.6042 0002974 268.7517  91.3301 14.98331640 46936
STARLINK-5332           
1 55285U 23010S   23324.37572085 -.00003064  00000+0 -24908-3 0  9992
2 55285  69.9986 323.0898 0003123 269.7202  90.3600 14.98339068 48779
STARLINK-5338           
1 55286U 23010T   23324.48863065 -.00001883  00000+0 -15010-3 0  9997
2 55286  70.0010 342.9672 0002054 254.8421 105.2511 14.98328993 47413
STARLINK-5341           
1 55287U 23010U   23324.43866621 -.00031253  00000+0 -26355-2 0  9991
2 55287  70.0013 323.2264 0001472 242.0624 118.0386 14.98151766 47899
STARLINK-5311           
1 55288U 23010V   23324.47627181 -.00000576  00000+0 -40483-4 0  9996
2 55288  70.0000 342.9207 0002660 267.4381  92.6474 14.98328224 47410
STARLINK-5320           
1 55289U 23010W   23324.49279944  .00000179  00000+0  22798-4 0  9995
2 55289  69.9994 342.9804 0002530 269.7853  90.3017 14.98330448 47417
STARLINK-5266           
1 55290U 23010X   23324.48445267  .00000104  00000+0  16530-4 0  9994
2 55290  69.9998 342.9514 0002518 263.4942  96.5930 14.98328873 47418
STARLINK-5327           
1 55291U 23010Y   23324.48461473 -.00000203  00000+0 -92551-5 0  9992
2 55291  69.9987 342.9520 0002831 269.0859  90.9976 14.98333709 47413
STARLINK-5325           
1 55292U 23010Z   23324.47193523 -.00000383  00000+0 -24285-4 0  9997
2 55292  69.9998 342.9044 0002728 267.6348  92.4498 14.98320723 47417
STARLINK-5287           
1 55293U 23010AA  23324.47609832  .00000544  00000+0  53402-4 0  9993
2 55293  69.9989 342.9207 0002642 266.3139  93.7718 14.98334166 47413
STARLINK-5286           
1 55294U 23010AB  23324.54725817  .00000341  00000+0  36329-4 0  9998
2 55294  70.0003   2.6338 0002751 266.4879  93.5966 14.98331644 46939
STARLINK-5293           
1 55295U 23010AC  23324.52224307  .00002074  00000+0  18162-3 0  9994
2 55295  69.9998   2.9514 0002708 265.1447  94.9403 14.98325065 46939
STARLINK-5285           
1 55296U 23010AD  23324.45940616 -.00000850  00000+0 -63438-4 0  9994
2 55296  69.9995 342.8615 0003009 269.7204  90.3610 14.98334678 48292
STARLINK-5284           
1 55297U 23010AE  23324.46775569 -.00000375  00000+0 -23596-4 0  9992
2 55297  69.9995 342.8910 0002837 267.9052  92.1782 14.98330401 47413
STARLINK-5272           
1 55298U 23010AF  23324.45523625 -.00000047  00000+0  38593-5 0  9995
2 55298  69.9998 342.8453 0002889 269.2091  90.8737 14.98336740 48298
STARLINK-5270           
1 55299U 23010AG  23324.45956905 -.00000137  00000+0 -36488-5 0  9999
2 55299  69.9990 342.8630 0002852 268.3848  91.6984 14.98335415 48299
STARLINK-5308           
1 55300U 23010AH  23324.45105742 -.00001564  00000+0 -12330-3 0  9990
2 55300  70.0001 342.8313 0002379 258.8131 101.2761 14.98335668 47413
